COMMENT,ORIGINATOR,NORAD_CAT_ID,OBJECT_NAME,OBJECT_TYPE,CLASSIFICATION_TYPE,INTLDES,EPOCH,EPOCH_MICROSECONDS,MEAN_MOTION,ECCENTRICITY,INCLINATION,RA_OF_ASC_NODE,ARG_OF_PERICENTER,MEAN_ANOMALY,EPHEMERIS_TYPE,ELEMENT_SET_NO,REV_AT_EPOCH,BSTAR,MEAN_MOTION_DOT,MEAN_MOTION_DDOT,FILE,TLE_LINE0,TLE_LINE1,TLE_LINE2,OBJECT_ID,OBJECT_NUMBER,SEMIMAJOR_AXIS,PERIOD,APOGEE,PERIGEE,DECAYED
"GENERATED VIA SPACETRACK.ORG API","18 SPCS","55101","SPACEBEE-159","PAYLOAD","U","23001CW","2024-03-04 14:56:20","980320","15.3715519","0.0012004","97.4358","129.7944","160.2084","199.9629","0","999","6501","0.00098404","0.00035919","0","4208633","0 SPACEBEE-159","1 55101U 23001CW  24064.62246505  .00035919  00000-0  98404-3 0  9999","2 55101  97.4358 129.7944 0012004 160.2084 199.9629 15.37155190 65018","2023-001CW","55101","6832.663","93.680","462.730","446.327","0"
"GENERATED VIA SPACETRACK.ORG API","18 SPCS","55101","SPACEBEE-159","PAYLOAD","U","23001CW","2024-03-05 03:26:15","202464","15.37216054","0.0012059","97.4361","130.3209","158.9728","201.2014","0","999","6509","0.0010132","0.00037065","0","4209001","0 SPACEBEE-159","1 55101U 23001CW  24065.14323151  .00037065  00000-0  10132-2 0  9995","2 55101  97.4361 130.3209 0012059 158.9728 201.2014 15.37216054 65093","2023-001CW","55101","6832.483","93.676","462.587","446.109","0"
"GENERATED VIA SPACETRACK.ORG API","18 SPCS","55101","SPACEBEE-159","PAYLOAD","U","23001CW","2024-03-05 03:26:15","202464","15.37216054","0.0012059","97.4361","130.3209","158.9728","201.2014","0","999","6509","0.0010132","0.00037065","0","4209183","0 SPACEBEE-159","1 55101U 23001CW  24065.14323151  .00037065  00000-0  10132-2 0  9995","2 55101  97.4361 130.3209 0012059 158.9728 201.2014 15.37216054 65093","2023-001CW","55101","6832.483","93.676","462.587","446.109","0"
"GENERATED VIA SPACETRACK.ORG API","18 SPCS","55101","SPACEBEE-159","PAYLOAD","U","23001CW","2024-03-05 17:29:51","852768","15.37279815","0.0011987","97.4359","130.914","156.8529","203.3258","0","999","6518","0.0012111","0.00044452","0","4210312","0 SPACEBEE-159","1 55101U 23001CW  24065.72907237  .00044452  00000-0  12111-2 0  9999","2 55101  97.4359 130.9140 0011987 156.8529 203.3258 15.37279815 65182","2023-001CW","55101","6832.294","93.672","462.349","445.969","0"
"GENERATED VIA SPACETRACK.ORG API","18 SPCS","55101","SPACEBEE-159","PAYLOAD","U","23001CW","2024-03-06 02:52:15","150720","15.37323456","0.0012098","97.436","131.3088","155.6347","204.5472","0","999","6524","0.0012892","0.00047411","0","4211361","0 SPACEBEE-159","1 55101U 23001CW  24066.11961980  .00047411  00000-0  12892-2 0  9992","2 55101  97.4360 131.3088 0012098 155.6347 204.5472 15.37323456 65248","2023-001CW","55101","6832.165","93.669","462.295","445.764","0"
"GENERATED VIA SPACETRACK.ORG API","18 SPCS","55101","SPACEBEE-159","PAYLOAD","U","23001CW","2024-03-06 16:55:48","504000","15.37383782","0.0012104","97.4361","131.9017","153.7774","206.4086","0","999","6533","0.0015134","0.0005584","0","4211882","0 SPACEBEE-159","1 55101U 23001CW  24066.70542250  .00055840  00000-0  15134-2 0  9999","2 55101  97.4361 131.9017 0012104 153.7774 206.4086 15.37383782 65338","2023-001CW","55101","6831.986","93.666","462.121","445.582","0"
"GENERATED VIA SPACETRACK.ORG API","18 SPCS","55101","SPACEBEE-159","PAYLOAD","U","23001CW","2024-03-07 03:51:53","160480","15.37424915","0.001209","97.4358","132.363","152.214","207.9752","0","999","6540","0.0011826","0.00043605","0","4212721","0 SPACEBEE-159","1 55101U 23001CW  24067.16103195  .00043605  00000-0  11826-2 0  9991","2 55101  97.4358 132.3630 0012090 152.2140 207.9752 15.37424915 65403","2023-001CW","55101","6831.864","93.663","461.989","445.470","0"
"GENERATED VIA SPACETRACK.ORG API","18 SPCS","55101","SPACEBEE-159","PAYLOAD","U","23001CW","2024-03-08 03:17:42","212832","15.37520618","0.0011994","97.4356","133.3513","149.0345","211.1609","0","999","6555","0.0013979","0.00051771","0","4213644","0 SPACEBEE-159","1 55101U 23001CW  24068.13729413  .00051771  00000-0  13979-2 0  9990","2 55101  97.4356 133.3513 0011994 149.0345 211.1609 15.37520618 65556","2023-001CW","55101","6831.581","93.657","461.640","445.252","0"
"GENERATED VIA SPACETRACK.ORG API","18 SPCS","55101","SPACEBEE-159","PAYLOAD","U","23001CW","2024-03-08 03:17:42","212832","15.37520618","0.0011994","97.4356","133.3513","149.0345","211.1609","0","999","6555","0.0013979","0.00051771","0","4214683","0 SPACEBEE-159","1 55101U 23001CW  24068.13729413  .00051771  00000-0  13979-2 0  9990","2 55101  97.4356 133.3513 0011994 149.0345 211.1609 15.37520618 65556","2023-001CW","55101","6831.581","93.657","461.640","445.252","0"
"GENERATED VIA SPACETRACK.ORG API","18 SPCS","55101","SPACEBEE-159","PAYLOAD","U","23001CW","2024-03-09 04:17:08","585376","15.37623847","0.0012034","97.4352","134.4053","145.6319","214.5706","0","999","6571","0.0012827","0.00047632","0","4215746","0 SPACEBEE-159","1 55101U 23001CW  24069.17857159  .00047632  00000-0  12827-2 0  9996","2 55101  97.4352 134.4053 0012034 145.6319 214.5706 15.37623847 65713","2023-001CW","55101","6831.275","93.651","461.361","444.919","0"
"GENERATED VIA SPACETRACK.ORG API","18 SPCS","55101","SPACEBEE-159","PAYLOAD","U","23001CW","2024-03-09 10:31:59","173248","15.37656899","0.0012055","97.4351","134.6688","144.6624","215.5422","0","999","6575","0.0015118","0.00056277","0","4216444","0 SPACEBEE-159","1 55101U 23001CW  24069.43887932  .00056277  00000-0  15118-2 0  9998","2 55101  97.4351 134.6688 0012055 144.6624 215.5422 15.37656899 65752","2023-001CW","55101","6831.177","93.649","461.277","444.807","0"
"GENERATED VIA SPACETRACK.ORG API","18 SPCS","55101","SPACEBEE-159","PAYLOAD","U","23001CW","2024-03-09 10:31:59","173248","15.37656899","0.0012055","97.4351","134.6688","144.6624","215.5422","0","999","6575","0.0015118","0.00056277","0","4216941","0 SPACEBEE-159","1 55101U 23001CW  24069.43887932  .00056277  00000-0  15118-2 0  9998","2 55101  97.4351 134.6688 0012055 144.6624 215.5422 15.37656899 65752","2023-001CW","55101","6831.177","93.649","461.277","444.807","0"
"GENERATED VIA SPACETRACK.ORG API","18 SPCS","55101","SPACEBEE-159","PAYLOAD","U","23001CW","2024-03-10 03:42:46","482624","15.37720032","0.0012007","97.4348","135.3932","142.4885","217.72","0","999","6586","0.0012606","0.00046951","0","4217588","0 SPACEBEE-159","1 55101U 23001CW  24070.15470466  .00046951  00000-0  12606-2 0  9996","2 55101  97.4348 135.3932 0012007 142.4885 217.7200 15.37720032 65861","2023-001CW","55101","6830.990","93.645","461.057","444.653","0"
"GENERATED VIA SPACETRACK.ORG API","18 SPCS","55101","SPACEBEE-159","PAYLOAD","U","23001CW","2024-03-10 03:42:46","482624","15.37720032","0.0012007","97.4348","135.3932","142.4885","217.72","0","999","6586","0.0012606","0.00046951","0","4218257","0 SPACEBEE-159","1 55101U 23001CW  24070.15470466  .00046951  00000-0  12606-2 0  9996","2 55101  97.4348 135.3932 0012007 142.4885 217.7200 15.37720032 65861","2023-001CW","55101","6830.990","93.645","461.057","444.653","0"
"GENERATED VIA SPACETRACK.ORG API","18 SPCS","55101","SPACEBEE-159","PAYLOAD","U","23001CW","2024-03-11 03:08:19","275360","15.37811191","0.0011999","97.4342","136.3814","139.3224","220.8919","0","999","6601","0.0012029","0.00044919","0","4220034","0 SPACEBEE-159","1 55101U 23001CW  24071.13077865  .00044919  00000-0  12029-2 0  9992","2 55101  97.4342 136.3814 0011999 139.3224 220.8919 15.37811191 66013","2023-001CW","55101","6830.720","93.640","460.781","444.389","0"
"GENERATED VIA SPACETRACK.ORG API","18 SPCS","55101","SPACEBEE-159","PAYLOAD","U","23001CW","2024-03-12 04:07:28","812864","15.37905543","0.001203","97.4336","137.4357","135.8436","224.3771","0","999","6617","0.0011331","0.00042424","0","4221034","0 SPACEBEE-159","1 55101U 23001CW  24072.17186126  .00042424  00000-0  11331-2 0  9992","2 55101  97.4336 137.4357 0012030 135.8436 224.3771 15.37905543 66170","2023-001CW","55101","6830.441","93.634","460.523","444.089","0"
"GENERATED VIA SPACETRACK.ORG API","18 SPCS","55101","SPACEBEE-159","PAYLOAD","U","23001CW","2024-03-12 04:07:28","812864","15.37905543","0.001203","97.4336","137.4357","135.8436","224.3771","0","999","6617","0.0011331","0.00042424","0","4222103","0 SPACEBEE-159","1 55101U 23001CW  24072.17186126  .00042424  00000-0  11331-2 0  9992","2 55101  97.4336 137.4357 0012030 135.8436 224.3771 15.37905543 66170","2023-001CW","55101","6830.441","93.634","460.523","444.089","0"
"GENERATED VIA SPACETRACK.ORG API","18 SPCS","55101","SPACEBEE-159","PAYLOAD","U","23001CW","2024-03-13 03:32:51","646272","15.37992083","0.0012176","97.4327","138.4234","132.9892","227.2375","0","999","6632","0.0011954","0.00044904","0","4223455","0 SPACEBEE-159","1 55101U 23001CW  24073.14781998  .00044904  00000-0  11954-2 0  9994","2 55101  97.4327 138.4234 0012176 132.9892 227.2375 15.37992083 66324","2023-001CW","55101","6830.185","93.629","460.366","443.733","0"
"GENERATED VIA SPACETRACK.ORG API","18 SPCS","55101","SPACEBEE-159","PAYLOAD","U","23001CW","2024-03-14 02:58:09","533280","15.38087484","0.0012052","97.4327","139.4125","129.997","230.2335","0","999","6647","0.0012962","0.00048871","0","4224518","0 SPACEBEE-159","1 55101U 23001CW  24074.12372145  .00048871  00000-0  12962-2 0  9990","2 55101  97.4327 139.4125 0012052 129.9970 230.2335 15.38087484 66477","2023-001CW","55101","6829.902","93.623","459.999","443.536","0"
"GENERATED VIA SPACETRACK.ORG API","18 SPCS","55101","SPACEBEE-159","PAYLOAD","U","23001CW","2024-03-14 02:58:09","533280","15.38087484","0.0012052","97.4327","139.4125","129.997","230.2335","0","999","6647","0.0012962","0.00048871","0","4225152","0 SPACEBEE-159","1 55101U 23001CW  24074.12372145  .00048871  00000-0  12962-2 0  9990","2 55101  97.4327 139.4125 0012052 129.9970 230.2335 15.38087484 66477","2023-001CW","55101","6829.902","93.623","459.999","443.536","0"
